48938,SHANNON,2021,93.07,30.0,+,97.65,Active,1,LEO,USA,USA,Commercial,Communications,Falcon,1 48938U 21059BM  24232.37985972  .00062912  00000+0  12285-2 0  9991,2 48938  97.6475  26.9115 0008391 201.8887 158.2004 15.47230051175103,15.47230051,0.0008391,LEO
48943,QMR-KWT,2021,90.79,1.0,+,97.62,Active,1,LEO,USA,Unknown,Civil,Communications,Falcon,1 48943U 21059BS  24232.49549649  .00478127  00000+0  18487-2 0  9996,2 48943  97.6246  33.6286 0006087 258.6913 101.3673 15.86054610175580,15.8605461,0.0006087,LEO
48944,AYAN-21,2021,91.59,-1.0,+,97.63,Active,0,LEO,USA,Rwanda,Unknown,Unknown,Unknown,1 48944U 21059BT  24232.40898074  .00181389  00000+0  13512-2 0  9992,2 48944  97.6266  33.9969 0004343 182.6956 177.4284 15.72224582175618,15.72224582,0.0004343,LEO
48948,HAWK-3C,2021,94.08,15.0,+,97.66,Active,1,LEO,USA,USA,Commercial,Surveillance,Falcon,1 48948U 21059BX  24232.37033391  .00022079  00000+0  74415-3 0  9995,2 48948  97.6626  22.1334 0011617 220.5675 139.4700 15.30690691174690,15.30690691,0.0011617,LEO
48951,DEMO8 (TENZING),2021,94.24,35.0,+,97.66,Active,1,LEO,USA,USA,Commercial,Technology Development,Falcon,1 48951U 21059CA  24232.39211803  .00017756  00000+0  64998-3 0  9998,2 48951  97.6606  19.3918 0011747 221.9571 138.0769 15.28038490174580,15.2803849,0.0011747,LEO
48952,ASTROCAST-0204,2021,93.67,4.0,+,97.65,Active,1,LEO,USA,Switzerland,Commercial,Communications,Falcon,1 48952U 21059CB  24232.42980392  .00034859  00000+0  95145-3 0  9990,2 48952  97.6543  23.9080 0009732 201.0381 159.0464 15.37304639174891,15.37304639,0.0009732,LEO
48954,ASTROCAST-0201,2021,93.98,4.0,+,97.64,Active,1,LEO,USA,Switzerland,Commercial,Communications,Falcon,1 48954U 21059CD  24232.41770653  .00025982  00000+0  83478-3 0  9991,2 48954  97.6380  20.3245 0008745 214.3530 145.7146 15.32227128174736,15.32227128,0.0008745,LEO
48955,ASTROCAST-0203,2021,93.98,4.0,+,97.64,Active,1,LEO,USA,Switzerland,Commercial,Communications,Falcon,1 48955U 21059CE  24232.37505412  .00025117  00000+0  80759-3 0  9995,2 48955  97.6362  19.8170 0010705 210.6659 149.3958 15.32192259174723,15.32192259,0.0010705,LEO
48956,DEMO9 (AURORA),2021,93.75,-1.0,+,97.65,Active,0,LEO,USA,USA,Unknown,Unknown,Unknown,1 48956U 21059CF  24232.38430972  .00034214  00000+0  97218-3 0  9991,2 48956  97.6547  22.9445 0010444 206.1365 153.9352 15.36047320174836,15.3604732,0.0010444,LEO
48957,HAWK-3A,2021,94.08,15.0,+,97.65,Active,1,LEO,USA,USA,Commercial,Surveillance,Falcon,1 48957U 21059CG  24232.37018446  .00022214  00000+0  74874-3 0  9999,2 48957  97.6495  20.2431 0011794 213.5962 146.4532 15.30685700174694,15.306857,0.0011794,LEO
48958,SHERPA-FX2 & TAGSAT-2,2021,94.18,-1.0,+,97.65,Active,0,LEO,USA,USA,Unknown,Unknown,Unknown,1 48958U 21059CH  24232.40701123  .00018386  00000+0  65451-3 0  9991,2 48958  97.6548  19.8206 0011908 214.9083 145.1376 15.28945338174633,15.28945338,0.0011908,LEO
48960,ASTROCAST-0205,2021,93.98,4.0,+,97.64,Active,1,LEO,USA,Switzerland,Commercial,Communications,Falcon,1 48960U 21059CK  24232.39579343  .00028488  00000+0  91302-3 0  9997,2 48960  97.6356  20.1654 0010245 185.0006 175.1135 15.32273436174736,15.32273436,0.0010245,LEO
48961,ASTROCAST-0202,2021,93.75,4.0,+,97.63,Active,1,LEO,USA,Switzerland,Commercial,Communications,Falcon,1 48961U 21059CL  24232.42183293  .00036060  00000+0  10258-2 0  9992,2 48961  97.6347  22.4531 0008485 203.1041 156.9822 15.36018504174872,15.36018504,0.0008485,LEO
48964,SPARTAN,2021,94.1,10.0,+,97.65,Active,1,LEO,USA,Bulgaria,Commercial,Technology Development,Falcon,1 48964U 21059CP  24232.38576205  .00022258  00000+0  76105-3 0  9997,2 48964  97.6487  18.3758 0004964 209.8975 150.1982 15.30274700174613,15.302747,0.0004964,LEO
48965,W-CUBE,2021,93.86,5.0,+,97.65,Active,1,LEO,USA,Finland,Government,Technology Development,Falcon,1 48965U 21059CQ  24232.41513463  .00034466  00000+0  10372-2 0  9996,2 48965  97.6516  19.4043 0007706 205.1794 154.9074 15.34262305174617,15.34262305,0.0007706,LEO
48968,ONEWEB-0250,2021,108.64,148.0,+,87.92,Active,1,LEO,Russia,UK,Commercial,Communications,Soyuz,1 48968U 21060B   24232.43457732  .00000065  00000+0  11917-3 0  9994,2 48968  87.9152   1.4543 0001668 111.6020 248.5294 13.25519334151870,13.25519334,0.0001668,LEO
48971,ONEWEB-0253,2021,109.37,148.0,+,87.92,Active,1,LEO,Russia,UK,Commercial,Communications,Soyuz,1 48971U 21060E   24232.42735457  .00000130  00000+0  30560-3 0  9998,2 48971  87.9151   1.5366 0001454 100.8447 259.2847 13.16594483151852,13.16594483,0.0001454,LEO
48972,ONEWEB-0254,2021,109.37,148.0,+,87.92,Active,1,LEO,Russia,UK,Commercial,Communications,Soyuz,1 48972U 21060F   24232.58884650  .00000194  00000+0  47395-3 0  9990,2 48972  87.9154   1.4837 0001483 101.8176 258.3121 13.16595516151875,13.16595516,0.0001483,LEO
48973,ONEWEB-0255,2021,109.37,148.0,+,87.92,Active,1,LEO,Russia,UK,Commercial,Communications,Soyuz,1 48973U 21060G   24232.39885459  .00000056  00000+0  11405-3 0  9998,2 48973  87.9153   1.5555 0001780  98.4073 261.7260 13.16593829151923,13.16593829,0.000178,LEO
48974,ONEWEB-0256,2021,109.37,148.0,+,87.92,Active,1,LEO,Russia,UK,Commercial,Communications,Soyuz,1 48974U 21060H   24232.42497842  .00000090  00000+0  20219-3 0  9999,2 48974  87.9158   1.5556 0001744  89.4235 270.7096 13.16595314151894,13.16595314,0.0001744,LEO
48975,ONEWEB-0257,2021,109.37,148.0,+,87.92,Active,1,LEO,Russia,UK,Commercial,Communications,Soyuz,1 48975U 21060J   24232.60942285  .00000029  00000+0  42918-4 0  9999,2 48975  87.9153   1.4878 0001640  95.5890 264.5428 13.16597195151873,13.16597195,0.000164,LEO
48976,ONEWEB-0258,2021,109.37,148.0,+,87.92,Active,1,LEO,Russia,UK,Commercial,Communications,Soyuz,1 48976U 21060K   24232.38302664  .00000071  00000+0  15222-3 0  9990,2 48976  87.9152   1.5610 0001731  94.7364 265.3965 13.16595637151858,13.16595637,0.0001731,LEO
48977,ONEWEB-0259,2021,109.37,148.0,+,87.92,Active,1,LEO,Russia,UK,Commercial,Communications,Soyuz,1 48977U 21060L   24232.60467410  .00000121  00000+0  28347-3 0  9995,2 48977  87.9154   1.5022 0001687 107.3215 252.8101 13.16596554151913,13.16596554,0.0001687,LEO
48978,ONEWEB-0260,2021,109.37,148.0,+,87.92,Active,1,LEO,Russia,UK,Commercial,Communications,Soyuz,1 48978U 21060M   24232.59597027  .00000098  00000+0  22315-3 0  9994,2 48978  87.9155   1.5331 0001559  75.7945 284.3359 13.16597874151892,13.16597874,0.0001559,LEO
48980,ONEWEB-0262,2021,109.37,148.0,+,87.92,Active,1,LEO,Russia,UK,Commercial,Communications,Soyuz,1 48980U 21060P   24232.39410263  .00000042  00000+0  76291-4 0  9993,2 48980  87.9152   1.5307 0001647 113.3104 246.8201 13.16593484151880,13.16593484,0.0001647,LEO
48981,ONEWEB-0263,2021,109.37,148.0,+,87.92,Active,1,LEO,Russia,UK,Commercial,Communications,Soyuz,1 48981U 21060Q   24232.42577534  .00000155  00000+0  37250-3 0  9999,2 48981  87.9157   1.5421 0001327 107.3716 252.7560 13.16594275151850,13.16594275,0.0001327,LEO
