OBJECT_NAME,OBJECT_ID,EPOCH,MEAN_MOTION,ECCENTRICITY,INCLINATION,RA_OF_ASC_NODE,ARG_OF_PERICENTER,MEAN_ANOMALY,EPHEMERIS_TYPE,CLASSIFICATION_TYPE,NORAD_CAT_ID,ELEMENT_SET_NO,REV_AT_EPOCH,BSTAR,MEAN_MOTION_DOT,MEAN_MOTION_DDOT
SHANNON,2021-059BM,2024-08-19T09:06:59.879808,15.47230051,.0008391,97.6475,26.9115,201.8887,158.2004,0,U,48938,999,17510,.12285E-2,.62912E-3,0
QMR-KWT,2021-059BS,2024-08-19T11:53:30.896736,15.86054610,.0006087,97.6246,33.6286,258.6913,101.3673,0,U,48943,999,17558,.18487E-2,.478127E-2,0
AYAN-21,2021-059BT,2024-08-19T09:48:55.935936,15.72224582,.0004343,97.6266,33.9969,182.6956,177.4284,0,U,48944,999,17561,.13512E-2,.181389E-2,0
HAWK-3C,2021-059BX,2024-08-19T08:53:16.849824,15.30690691,.0011617,97.6626,22.1334,220.5675,139.4700,0,U,48948,999,17469,.74415E-3,.22079E-3,0
DEMO8 (TENZING),2021-059CA,2024-08-19T09:24:38.997792,15.28038490,.0011747,97.6606,19.3918,221.9571,138.0769,0,U,48951,999,17458,.64998E-3,.17756E-3,0
ASTROCAST-0204,2021-059CB,2024-08-19T10:18:55.058688,15.37304639,.0009732,97.6543,23.9080,201.0381,159.0464,0,U,48952,999,17489,.95145E-3,.34859E-3,0
ASTROCAST-0201,2021-059CD,2024-08-19T10:01:29.844192,15.32227128,.0008745,97.6380,20.3245,214.3530,145.7146,0,U,48954,999,17473,.83478E-3,.25982E-3,0
ASTROCAST-0203,2021-059CE,2024-08-19T09:00:04.675968,15.32192259,.0010705,97.6362,19.8170,210.6659,149.3958,0,U,48955,999,17472,.80759E-3,.25117E-3,0
DEMO9 (AURORA),2021-059CF,2024-08-19T09:13:24.359808,15.36047320,.0010444,97.6547,22.9445,206.1365,153.9352,0,U,48956,999,17483,.97218E-3,.34214E-3,0
HAWK-3A,2021-059CG,2024-08-19T08:53:03.937344,15.30685700,.0011794,97.6495,20.2431,213.5962,146.4532,0,U,48957,999,17469,.74874E-3,.22214E-3,0
SHERPA-FX2 & TAGSAT-2,2021-059CH,2024-08-19T09:46:05.770272,15.28945338,.0011908,97.6548,19.8206,214.9083,145.1376,0,U,48958,999,17463,.65451E-3,.18386E-3,0
ASTROCAST-0205,2021-059CK,2024-08-19T09:29:56.552352,15.32273436,.0010245,97.6356,20.1654,185.0006,175.1135,0,U,48960,999,17473,.91302E-3,.28488E-3,0
ASTROCAST-0202,2021-059CL,2024-08-19T10:07:26.365152,15.36018504,.0008485,97.6347,22.4531,203.1041,156.9822,0,U,48961,999,17487,.10258E-2,.3606E-3,0
SPARTAN,2021-059CP,2024-08-19T09:15:29.841120,15.30274700,.0004964,97.6487,18.3758,209.8975,150.1982,0,U,48964,999,17461,.76105E-3,.22258E-3,0
W-CUBE,2021-059CQ,2024-08-19T09:57:47.632032,15.34262305,.0007706,97.6516,19.4043,205.1794,154.9074,0,U,48965,999,17461,.10372E-2,.34466E-3,0
ONEWEB-0250,2021-060B,2024-08-19T10:25:47.480448,13.25519334,.0001668,87.9152,1.4543,111.6020,248.5294,0,U,48968,999,15187,.11917E-3,.65E-6,0
ONEWEB-0253,2021-060E,2024-08-19T10:15:23.434848,13.16594483,.0001454,87.9151,1.5366,100.8447,259.2847,0,U,48971,999,15185,.3056E-3,.13E-5,0
ONEWEB-0254,2021-060F,2024-08-19T14:07:56.337600,13.16595516,.0001483,87.9154,1.4837,101.8176,258.3121,0,U,48972,999,15315,.47395E-3,.194E-5,0
ONEWEB-0255,2021-060G,2024-08-19T09:34:21.036576,13.16593829,.000178,87.9153,1.5555,98.4073,261.7260,0,U,48973,999,15192,.11405E-3,.56E-6,0
ONEWEB-0256,2021-060H,2024-08-19T10:11:58.135488,13.16595314,.0001744,87.9158,1.5556,89.4235,270.7096,0,U,48974,999,15189,.20219E-3,.9E-6,0
ONEWEB-0257,2021-060J,2024-08-19T14:37:34.134240,13.16597195,.000164,87.9153,1.4878,95.5890,264.5428,0,U,48975,999,15316,.42918E-4,.29E-6,0
ONEWEB-0258,2021-060K,2024-08-19T09:11:33.501696,13.16595637,.0001731,87.9152,1.5610,94.7364,265.3965,0,U,48976,999,15185,.15222E-3,.71E-6,0
ONEWEB-0259,2021-060L,2024-08-19T14:30:43.842240,13.16596554,.0001687,87.9154,1.5022,107.3215,252.8101,0,U,48977,999,15191,.28347E-3,.121E-5,0
ONEWEB-0260,2021-060M,2024-08-19T14:18:11.831328,13.16597874,.0001559,87.9155,1.5331,75.7945,284.3359,0,U,48978,999,15317,.22315E-3,.98E-6,0
ONEWEB-0262,2021-060P,2024-08-19T09:27:30.467232,13.16593484,.0001647,87.9152,1.5307,113.3104,246.8201,0,U,48980,999,15188,.76291E-4,.42E-6,0
ONEWEB-0263,2021-060Q,2024-08-19T10:13:06.989376,13.16594275,.0001327,87.9157,1.5421,107.3716,252.7560,0,U,48981,999,15185,.3725E-3,.155E-5,0
